[{"OBJECT_NAME":"POLYITAN-1","OBJECT_ID":"2014-033AJ","EPOCH":"2026-03-09T22:27:50.258304","MEAN_MOTION":15.29568085,"ECCENTRICITY":0.00093607,"INCLINATION":98.1053,"RA_OF_ASC_NODE":86.0432,"ARG_OF_PERICENTER":127.248,"MEAN_ANOMALY":232.9614,"EPHEMERIS_TYPE":0,"CLASSIFICATION_TYPE":"U","NORAD_CAT_ID":40042,"ELEMENT_SET_NO":999,"REV_AT_EPOCH":63840,"BSTAR":0.00083772474,"MEAN_MOTION_DOT":0.00024003,"MEAN_MOTION_DDOT":0},{"OBJECT_NAME":"STARLINK-35315","OBJECT_ID":"2025-265AD","EPOCH":"2026-03-08T23:44:14.252640","MEAN_MOTION":15.27594453,"ECCENTRICITY":0.00023914,"INCLINATION":43.0051,"RA_OF_ASC_NODE":282.1148,"ARG_OF_PERICENTER":271.0191,"MEAN_ANOMALY":89.0386,"EPHEMERIS_TYPE":0,"CLASSIFICATION_TYPE":"U","NORAD_CAT_ID":66543,"ELEMENT_SET_NO":999,"REV_AT_EPOCH":1700,"BSTAR":0.0010483897,"MEAN_MOTION_DOT":0.00028713,"MEAN_MOTION_DDOT":0}]
